IRIDIUM 126             
1 42809U 17039G   24097.92698036  .00000080  00000+0  21613-4 0  9992
2 42809  86.3977 328.5118 0002211  93.0530 267.0919 14.34218414355109
IRIDIUM 124             
1 42810U 17039H   24097.93453963  .00000159  00000+0  41225-4 0  9991
2 42810  86.4444 265.2085 0002160  85.8639 274.2809 14.43275977359540
IRIDIUM 128             
1 42811U 17039J   24097.70841788  .00000357  00000+0  12054-3 0  9990
2 42811  86.4024   0.1064 0002349  83.2406 276.9057 14.34222930355104
IRIDIUM 121             
1 42812U 17039K   24097.38785867  .00000033  00000+0  48482-5 0  9997
2 42812  86.3978 328.7593 0002161  87.1352 273.0091 14.34217801354907
IRIDIUM 133             
1 42955U 17061A   24097.67035509  .00000101  00000+0  28953-4 0  9999
2 42955  86.4026   0.2203 0002139  87.6031 272.5410 14.34218311339891
IRIDIUM 100             
1 42956U 17061B   24097.45470734  .00000293  00000+0  97435-4 0  9992
2 42956  86.4025   0.2477 0002242  88.0454 272.0998 14.34217773339867
IRIDIUM 122             
1 42957U 17061C   24097.21369369  .00000078  00000+0  20863-4 0  9990
2 42957  86.4025   0.3465 0002340  86.6665 273.4798 14.34217798339830
IRIDIUM 129             
1 42958U 17061D   24097.44837697  .00000315  00000+0  10532-3 0  9995
2 42958  86.4026   0.3071 0002298  88.5896 271.5563 14.34217599339887
